[{"OBJECT_NAME":"TIANMU-1 07","OBJECT_ID":"2023-101A","EPOCH":"2026-03-06T13:47:20.454720","MEAN_MOTION":15.29118809,"ECCENTRICITY":0.00046097,"INCLINATION":97.2728,"RA_OF_ASC_NODE":118.5929,"ARG_OF_PERICENTER":142.4105,"MEAN_ANOMALY":217.7458,"EPHEMERIS_TYPE":0,"CLASSIFICATION_TYPE":"U","NORAD_CAT_ID":57399,"ELEMENT_SET_NO":999,"REV_AT_EPOCH":14596,"BSTAR":0.00029794732,"MEAN_MOTION_DOT":8.352e-5,"MEAN_MOTION_DDOT":0},{"OBJECT_NAME":"STARLINK-36441","OBJECT_ID":"2026-008AA","EPOCH":"2026-03-09T14:12:07.041024","MEAN_MOTION":15.27568643,"ECCENTRICITY":0.0001634,"INCLINATION":42.9987,"RA_OF_ASC_NODE":206.0758,"ARG_OF_PERICENTER":278.6295,"MEAN_ANOMALY":81.4372,"EPHEMERIS_TYPE":0,"CLASSIFICATION_TYPE":"U","NORAD_CAT_ID":67469,"ELEMENT_SET_NO":999,"REV_AT_EPOCH":955,"BSTAR":0.00085882,"MEAN_MOTION_DOT":0.00023438,"MEAN_MOTION_DDOT":0}]
